[{"OBJECT_NAME":"IRIDIUM 152","OBJECT_ID":"2018-047D","EPOCH":"2026-03-28T19:09:30.324096","MEAN_MOTION":14.342179,"ECCENTRICITY":0.00021708,"INCLINATION":86.3939,"RA_OF_ASC_NODE":121.9557,"ARG_OF_PERICENTER":90.7842,"MEAN_ANOMALY":269.3603,"EPHEMERIS_TYPE":0,"CLASSIFICATION_TYPE":"U","NORAD_CAT_ID":43479,"ELEMENT_SET_NO":999,"REV_AT_EPOCH":41096,"BSTAR":5.4378952e-5,"MEAN_MOTION_DOT":1.72e-6,"MEAN_MOTION_DDOT":0},{"OBJECT_NAME":"IRIDIUM 147","OBJECT_ID":"2018-047E","EPOCH":"2026-03-27T19:52:06.420576","MEAN_MOTION":14.34216701,"ECCENTRICITY":0.00022469,"INCLINATION":86.3942,"RA_OF_ASC_NODE":122.365,"ARG_OF_PERICENTER":94.4871,"MEAN_ANOMALY":265.6581,"EPHEMERIS_TYPE":0,"CLASSIFICATION_TYPE":"U","NORAD_CAT_ID":43480,"ELEMENT_SET_NO":999,"REV_AT_EPOCH":41082,"BSTAR":-2.8313789e-5,"MEAN_MOTION_DOT":-6.0e-7,"MEAN_MOTION_DDOT":0},{"OBJECT_NAME":"IRIDIUM 110","OBJECT_ID":"2018-047F","EPOCH":"2026-03-28T14:26:22.203168","MEAN_MOTION":14.34217713,"ECCENTRICITY":0.000209,"INCLINATION":86.3943,"RA_OF_ASC_NODE":122.1314,"ARG_OF_PERICENTER":84.0592,"MEAN_ANOMALY":276.0842,"EPHEMERIS_TYPE":0,"CLASSIFICATION_TYPE":"U","NORAD_CAT_ID":43481,"ELEMENT_SET_NO":999,"REV_AT_EPOCH":41092,"BSTAR":8.8676e-5,"MEAN_MOTION_DOT":2.68e-6,"MEAN_MOTION_DDOT":0},{"OBJECT_NAME":"IRIDIUM 162","OBJECT_ID":"2018-047G","EPOCH":"2026-03-28T14:24:21.077280","MEAN_MOTION":14.4328695,"ECCENTRICITY":0.0002196,"INCLINATION":86.4464,"RA_OF_ASC_NODE":122.0702,"ARG_OF_PERICENTER":96.1908,"MEAN_ANOMALY":263.9543,"EPHEMERIS_TYPE":0,"CLASSIFICATION_TYPE":"U","NORAD_CAT_ID":43482,"ELEMENT_SET_NO":999,"REV_AT_EPOCH":41350,"BSTAR":8.7574e-5,"MEAN_MOTION_DOT":3.15e-6,"MEAN_MOTION_DDOT":0},{"OBJECT_NAME":"IRIDIUM 160","OBJECT_ID":"2018-061A","EPOCH":"2026-03-28T18:09:46.401984","MEAN_MOTION":14.34217453,"ECCENTRICITY":0.00021292,"INCLINATION":86.391,"RA_OF_ASC_NODE":90.4344,"ARG_OF_PERICENTER":86.8917,"MEAN_ANOMALY":273.2523,"EPHEMERIS_TYPE":0,"CLASSIFICATION_TYPE":"U","NORAD_CAT_ID":43569,"ELEMENT_SET_NO":999,"REV_AT_EPOCH":40184,"BSTAR":-4.280991e-6,"MEAN_MOTION_DOT":8.0e-8,"MEAN_MOTION_DDOT":0},{"OBJECT_NAME":"IRIDIUM 166","OBJECT_ID":"2018-061B","EPOCH":"2026-03-28T22:07:14.515392","MEAN_MOTION":14.34216657,"ECCENTRICITY":0.00022365,"INCLINATION":86.3909,"RA_OF_ASC_NODE":90.3168,"ARG_OF_PERICENTER":91.9505,"MEAN_ANOMALY":268.1947,"EPHEMERIS_TYPE":0,"CLASSIFICATION_TYPE":"U","NORAD_CAT_ID":43570,"ELEMENT_SET_NO":999,"REV_AT_EPOCH":40189,"BSTAR":-3.7014875e-5,"MEAN_MOTION_DOT":-8.4e-7,"MEAN_MOTION_DDOT":0},{"OBJECT_NAME":"IRIDIUM 158","OBJECT_ID":"2018-061C","EPOCH":"2026-03-28T12:59:14.407872","MEAN_MOTION":14.34217616,"ECCENTRICITY":0.0002004,"INCLINATION":86.3908,"RA_OF_ASC_NODE":90.486,"ARG_OF_PERICENTER":91.8614,"MEAN_ANOMALY":268.2811,"EPHEMERIS_TYPE":0,"CLASSIFICATION_TYPE":"U","NORAD_CAT_ID":43571,"ELEMENT_SET_NO":999,"REV_AT_EPOCH":40180,"BSTAR":3.2846e-7,"MEAN_MOTION_DOT":2.1e-7,"MEAN_MOTION_DDOT":0},{"OBJECT_NAME":"IRIDIUM 165","OBJECT_ID":"2018-061D","EPOCH":"2026-03-28T16:56:42.374400","MEAN_MOTION":14.34217738,"ECCENTRICITY":0.00022546,"INCLINATION":86.3911,"RA_OF_ASC_NODE":90.4618,"ARG_OF_PERICENTER":92.8466,"MEAN_ANOMALY":267.2988,"EPHEMERIS_TYPE":0,"CLASSIFICATION_TYPE":"U","NORAD_CAT_ID":43572,"ELEMENT_SET_NO":999,"REV_AT_EPOCH":40185,"BSTAR":-8.696419e-6,"MEAN_MOTION_DOT":-5.0e-8,"MEAN_MOTION_DDOT":0},{"OBJECT_NAME":"IRIDIUM 155","OBJECT_ID":"2018-061E","EPOCH":"2026-03-28T12:40:58.423008","MEAN_MOTION":14.3421744,"ECCENTRICITY":0.00020727,"INCLINATION":86.3905,"RA_OF_ASC_NODE":90.4091,"ARG_OF_PERICENTER":94.2901,"MEAN_ANOMALY":265.8531,"EPHEMERIS_TYPE":0,"CLASSIFICATION_TYPE":"U","NORAD_CAT_ID":43573,"ELEMENT_SET_NO":999,"REV_AT_EPOCH":40179,"BSTAR":-8.491455e-6,"MEAN_MOTION_DOT":-4.0e-8,"MEAN_MOTION_DDOT":0},{"OBJECT_NAME":"IRIDIUM 154","OBJECT_ID":"2018-061F","EPOCH":"2026-03-28T12:13:34.489344","MEAN_MOTION":14.34217472,"ECCENTRICITY":0.0002304,"INCLINATION":86.3909,"RA_OF_ASC_NODE":90.5467,"ARG_OF_PERICENTER":92.5042,"MEAN_ANOMALY":267.6418,"EPHEMERIS_TYPE":0,"CLASSIFICATION_TYPE":"U","NORAD_CAT_ID":43574,"ELEMENT_SET_NO":999,"REV_AT_EPOCH":40184,"BSTAR":-9.9168e-6,"MEAN_MOTION_DOT":-8.0e-8,"MEAN_MOTION_DDOT":0},{"OBJECT_NAME":"IRIDIUM 163","OBJECT_ID":"2018-061G","EPOCH":"2026-03-28T16:47:34.359936","MEAN_MOTION":14.3421726,"ECCENTRICITY":0.00020504,"INCLINATION":86.3907,"RA_OF_ASC_NODE":90.3849,"ARG_OF_PERICENTER":90.5648,"MEAN_ANOMALY":269.5783,"EPHEMERIS_TYPE":0,"CLASSIFICATION_TYPE":"U","NORAD_CAT_ID":43575,"ELEMENT_SET_NO":999,"REV_AT_EPOCH":40184,"BSTAR":-6.73532e-6,"MEAN_MOTION_DOT":1.0e-8,"MEAN_MOTION_DDOT":0},{"OBJECT_NAME":"IRIDIUM 156","OBJECT_ID":"2018-061H","EPOCH":"2026-03-28T17:51:30.445632","MEAN_MOTION":14.34217375,"ECCENTRICITY":0.00021045,"INCLINATION":86.3907,"RA_OF_ASC_NODE":90.3735,"ARG_OF_PERICENTER":95.6333,"MEAN_ANOMALY":264.5103,"EPHEMERIS_TYPE":0,"CLASSIFICATION_TYPE":"U","NORAD_CAT_ID":43576,"ELEMENT_SET_NO":999,"REV_AT_EPOCH":40184,"BSTAR":-1.6899186e-5,"MEAN_MOTION_DOT":-2.8e-7,"MEAN_MOTION_DDOT":0},{"OBJECT_NAME":"IRIDIUM 164","OBJECT_ID":"2018-061J","EPOCH":"2026-03-28T22:25:30.444960","MEAN_MOTION":14.34217297,"ECCENTRICITY":0.00023241,"INCLINATION":86.3908,"RA_OF_ASC_NODE":90.3329,"ARG_OF_PERICENTER":89.0804,"MEAN_ANOMALY":271.0658,"EPHEMERIS_TYPE":0,"CLASSIFICATION_TYPE":"U","NORAD_CAT_ID":43577,"ELEMENT_SET_NO":999,"REV_AT_EPOCH":40191,"BSTAR":-9.141147e-6,"MEAN_MOTION_DOT":-6.0e-8,"MEAN_MOTION_DDOT":0},{"OBJECT_NAME":"IRIDIUM 159","OBJECT_ID":"2018-061K","EPOCH":"2026-03-28T18:18:54.417312","MEAN_MOTION":14.34217808,"ECCENTRICITY":0.00022051,"INCLINATION":86.3905,"RA_OF_ASC_NODE":90.3431,"ARG_OF_PERICENTER":86.8787,"MEAN_ANOMALY":273.2662,"EPHEMERIS_TYPE":0,"CLASSIFICATION_TYPE":"U","NORAD_CAT_ID":43578,"ELEMENT_SET_NO":999,"REV_AT_EPOCH":40185,"BSTAR":1.4782997e-5,"MEAN_MOTION_DOT":6.1e-7,"MEAN_MOTION_DDOT":0},{"OBJECT_NAME":"IRIDIUM 180","OBJECT_ID":"2019-002A","EPOCH":"2026-03-28T21:39:06.940224","MEAN_MOTION":14.34218588,"ECCENTRICITY":0.00022008,"INCLINATION":86.4006,"RA_OF_ASC_NODE":27.1377,"ARG_OF_PERICENTER":82.2753,"MEAN_ANOMALY":277.8693,"EPHEMERIS_TYPE":0,"CLASSIFICATION_TYPE":"U","NORAD_CAT_ID":43922,"ELEMENT_SET_NO":999,"REV_AT_EPOCH":37748,"BSTAR":0.00010535234,"MEAN_MOTION_DOT":3.15e-6,"MEAN_MOTION_DDOT":0},{"OBJECT_NAME":"IRIDIUM 176","OBJECT_ID":"2019-002B","EPOCH":"2026-03-28T21:20:21.804000","MEAN_MOTION":14.72251748,"ECCENTRICITY":0.00026355,"INCLINATION":86.6126,"RA_OF_ASC_NODE":27.0977,"ARG_OF_PERICENTER":87.1762,"MEAN_ANOMALY":272.9757,"EPHEMERIS_TYPE":0,"CLASSIFICATION_TYPE":"U","NORAD_CAT_ID":43923,"ELEMENT_SET_NO":999,"REV_AT_EPOCH":38743,"BSTAR":0.00016592539,"MEAN_MOTION_DOT":1.071e-5,"MEAN_MOTION_DDOT":0},{"OBJECT_NAME":"IRIDIUM 168","OBJECT_ID":"2019-002C","EPOCH":"2026-03-28T19:49:30.962784","MEAN_MOTION":14.34218406,"ECCENTRICITY":0.00021357,"INCLINATION":86.4008,"RA_OF_ASC_NODE":27.2447,"ARG_OF_PERICENTER":85.1387,"MEAN_ANOMALY":275.0052,"EPHEMERIS_TYPE":0,"CLASSIFICATION_TYPE":"U","NORAD_CAT_ID":43924,"ELEMENT_SET_NO":999,"REV_AT_EPOCH":37745,"BSTAR":6.0504374e-5,"MEAN_MOTION_DOT":1.89e-6,"MEAN_MOTION_DDOT":0}]
